[{"OBJECT_NAME":"STARLINK-31160","OBJECT_ID":"2024-005X","EPOCH":"2026-03-09T22:00:01.999584","MEAN_MOTION":15.26722141,"ECCENTRICITY":0.00013219,"INCLINATION":43.0011,"RA_OF_ASC_NODE":218.3571,"ARG_OF_PERICENTER":279.8839,"MEAN_ANOMALY":271.7411,"EPHEMERIS_TYPE":0,"CLASSIFICATION_TYPE":"U","NORAD_CAT_ID":58749,"ELEMENT_SET_NO":999,"REV_AT_EPOCH":558,"BSTAR":0.0018804434,"MEAN_MOTION_DOT":0.00050499,"MEAN_MOTION_DDOT":0},{"OBJECT_NAME":"FLOCK 4G-26","OBJECT_ID":"2025-009AA","EPOCH":"2026-03-09T19:19:02.910720","MEAN_MOTION":15.27281631,"ECCENTRICITY":0.0001988,"INCLINATION":97.4054,"RA_OF_ASC_NODE":151.3913,"ARG_OF_PERICENTER":299.1273,"MEAN_ANOMALY":60.9767,"EPHEMERIS_TYPE":0,"CLASSIFICATION_TYPE":"U","NORAD_CAT_ID":62633,"ELEMENT_SET_NO":999,"REV_AT_EPOCH":6373,"BSTAR":0.00042468806,"MEAN_MOTION_DOT":0.00011283,"MEAN_MOTION_DDOT":0}]
